NORAD_CAT_ID,OBJECT_NAME,OBJECT_TYPE,EPOCH,MEAN_MOTION,ECCENTRICITY,INCLINATION,RA_OF_ASC_NODE,ARG_OF_PERICENTER,MEAN_ANOMALY,BSTAR,MEAN_MOTION_DOT,MEAN_MOTION_DDOT,TLE_LINE0,TLE_LINE1,TLE_LINE2,SEMIMAJOR_AXIS,PERIOD,APOGEE,PERIGEE,DECAYED
55272.0,STARLINK-5310,PAYLOAD,2023-11-18 12:40:01,14.98323375,0.0002537,70.0006,8.0309,256.884,103.2036,7.006e-05,7.43e-06,0.0,0 STARLINK-5310,1 55272U 23010D   23322.52779697  .00000743  00000-0  70060-4 0  9992,2 55272  70.0006   8.0309 0002537 256.8840 103.2036 14.98323375 46635,6950.213,96.107,573.842,570.315,0.0
55272.0,STARLINK-5310,PAYLOAD,2023-11-18 20:40:41,14.98329872,0.0002885,70.0001,7.1892,271.8189,88.264,3.7792e-06,-4.8e-07,0.0,0 STARLINK-5310,1 55272U 23010D   23322.86159396 -.00000048  00000-0  37792-5 0  9992,2 55272  70.0001   7.1892 0002885 271.8189  88.2640 14.98329872 46682,6950.193,96.107,574.063,570.053,0.0
55272.0,STARLINK-5310,PAYLOAD,2023-11-19 03:05:13,14.98329199,0.0002993,69.9994,6.5169,270.5381,89.5435,2.1013e-05,1.58e-06,0.0,0 STARLINK-5310,1 55272U 23010D   23323.12863356  .00000158  00000-0  21013-4 0  9999,2 55272  69.9994   6.5169 0002993 270.5381  89.5435 14.98329199 46419,6950.195,96.107,574.141,569.98,0.0
55272.0,STARLINK-5310,PAYLOAD,2023-11-19 12:42:02,14.98330144,0.0002623,70.0003,5.5067,262.2234,97.8627,2.4081e-05,1.94e-06,0.0,0 STARLINK-5310,1 55272U 23010D   23323.52919315  .00000194  00000-0  24081-4 0  9998,2 55272  70.0003   5.5067 0002623 262.2234  97.8627 14.98330144 46781,6950.192,96.107,573.88,570.234,0.0
55272.0,STARLINK-5310,PAYLOAD,2023-11-19 20:42:42,14.98331027,0.0002455,70.0007,4.6641,274.4666,85.6212,3.8171e-05,3.63e-06,0.0,0 STARLINK-5310,1 55272U 23010D   23323.86299315  .00000363  00000-0  38171-4 0  9999,2 55272  70.0007   4.6641 0002455 274.4666  85.6212 14.98331027 46832,6950.19,96.107,573.761,570.348,0.0
55272.0,STARLINK-5310,PAYLOAD,2023-11-20 09:31:46,14.98336284,0.0002727,70.0002,3.3195,266.0374,94.0473,9.8439e-05,1.082e-05,0.0,0 STARLINK-5310,1 55272U 23010D   23324.39706550  .00001082  00000-0  98439-4 0  9994,2 55272  70.0002   3.3195 0002727 266.0374  94.0473 14.98336284 46600,6950.173,96.107,573.934,570.143,0.0
55272.0,STARLINK-5310,PAYLOAD,2023-11-20 12:44:02,14.98337222,0.0002837,69.9996,2.9818,267.8775,92.2059,9.29e-05,1.016e-05,0.0,0 STARLINK-5310,1 55272U 23010D   23324.53058468  .00001016  00000-0  92900-4 0  9992,2 55272  69.9996   2.9818 0002837 267.8775  92.2059 14.98337222 46931,6950.171,96.107,574.007,570.064,0.0
55272.0,STARLINK-5310,PAYLOAD,2023-11-21 03:09:15,14.98332469,0.0002744,70.001,1.4667,270.9991,89.0854,4.8589e-05,4.87e-06,0.0,0 STARLINK-5310,1 55272U 23010D   23325.13142815  .00000487  00000-0  48589-4 0  9994,2 55272  70.0010   1.4667 0002744 270.9991  89.0854 14.98332469 46710,6950.185,96.107,573.957,570.143,0.0
55272.0,STARLINK-5310,PAYLOAD,2023-11-21 11:09:56,14.98322645,0.0002461,70.0008,0.6259,259.9538,100.1343,-1.8648e-05,-3.15e-06,0.0,0 STARLINK-5310,1 55272U 23010D   23325.46523556 -.00000315  00000-0 -18648-4 0  9990,2 55272  70.0008   0.6259 0002461 259.9538 100.1343 14.98322645 46763,6950.216,96.107,573.791,570.37,0.0
55272.0,STARLINK-5310,PAYLOAD,2023-11-21 12:46:03,14.98332586,0.0002656,70.0,0.456,263.4858,96.5999,7.609e-05,8.15e-06,0.0,0 STARLINK-5310,1 55272U 23010D   23325.53198748  .00000815  00000-0  76090-4 0  9997,2 55272  70.0000   0.4560 0002656 263.4858  96.5999 14.98332586 47085,6950.185,96.107,573.896,570.204,0.0
55272.0,STARLINK-5310,PAYLOAD,2023-11-22 11:11:56,14.98335651,0.0002762,70.0,358.1,265.3683,94.7161,7.0713e-05,7.51e-06,0.0,0 STARLINK-5310,1 55272U 23010D   23326.46662335  .00000751  00000-0  70713-4 0  9993,2 55272  70.0000 358.1000 0002762 265.3683  94.7161 14.98335651 46910,6950.175,96.107,573.96,570.121,0.0
55272.0,STARLINK-5310,PAYLOAD,2023-11-22 12:48:04,14.98335678,0.0002865,70.0,357.9305,271.3293,88.7538,0.00017696,2.019e-05,0.0,0 STARLINK-5310,1 55272U 23010D   23326.53338160  .00002019  00000-0  17696-3 0  9996,2 55272  70.0000 357.9305 0002865 271.3293  88.7538 14.98335678 47239,6950.175,96.107,574.032,570.049,0.0
55272.0,STARLINK-5310,PAYLOAD,2023-11-23 03:13:17,14.98322654,0.0002594,70.0019,356.4146,279.2642,80.8224,9.7837e-05,1.074e-05,0.0,0 STARLINK-5310,1 55272U 23010D   23327.13423214  .00001074  00000-0  97837-4 0  9994,2 55272  70.0019 356.4146 0002594 279.2642  80.8224 14.98322654 47011,6950.216,96.107,573.883,570.278,0.0
55272.0,STARLINK-5310,PAYLOAD,2023-11-23 11:13:58,14.98322281,0.0002656,70.0001,355.5761,259.7203,100.3657,-4.0737e-05,-5.79e-06,0.0,0 STARLINK-5310,1 55272U 23010D   23327.46803664 -.00000579  00000-0 -40737-4 0  9999,2 55272  70.0001 355.5761 0002656 259.7203 100.3657 14.98322281 47373,6950.217,96.107,573.928,570.236,0.0
55272.0,STARLINK-5310,PAYLOAD,2023-11-24 03:15:18,14.98330118,0.0002875,69.9998,353.8909,262.4568,97.6264,-8.012e-06,-1.89e-06,0.0,0 STARLINK-5310,1 55272U 23010D   23328.13563208 -.00000189  00000-0 -80120-5 0  9999,2 55272  69.9998 353.8909 0002875 262.4568  97.6264 14.98330118 47165,6950.193,96.107,574.056,570.059,0.0
55272.0,STARLINK-5310,PAYLOAD,2023-11-24 11:15:58,14.98331767,0.0002848,69.9995,353.05,264.1992,95.8842,6.6749e-05,7.04e-06,0.0,0 STARLINK-5310,1 55272U 23010D   23328.46943070  .00000704  00000-0  66749-4 0  9995,2 55272  69.9995 353.0500 0002848 264.1992  95.8842 14.98331767 47524,6950.187,96.107,574.032,570.073,0.0
55272.0,STARLINK-5310,PAYLOAD,2023-11-25 03:17:19,14.98330367,0.0002936,69.9993,351.3667,262.8006,97.282,0.00022083,2.543e-05,0.0,0 STARLINK-5310,1 55272U 23010D   23329.13702943  .00002543  00000-0  22083-3 0  9997,2 55272  69.9993 351.3667 0002936 262.8006  97.2820 14.98330367 47310,6950.192,96.107,574.097,570.016,0.0
55272.0,STARLINK-5310,PAYLOAD,2023-11-25 12:54:07,14.98341578,0.0002808,70.001,350.3574,263.9482,96.1358,0.00046718,5.487e-05,0.0,0 STARLINK-5310,1 55272U 23010D   23329.53758785  .00005487  00000-0  46718-3 0  9997,2 55272  70.0010 350.3574 0002808 263.9482  96.1358 14.98341578 47687,6950.157,96.106,573.974,570.07,0.0
55272.0,STARLINK-5310,PAYLOAD,2023-11-26 03:19:19,14.98343427,0.0002548,70.0016,348.8431,262.8334,97.2535,0.00032874,3.833e-05,0.0,0 STARLINK-5310,1 55272U 23010D   23330.13842445  .00003833  00000-0  32874-3 0  9993,2 55272  70.0016 348.8431 0002548 262.8334  97.2535 14.98343427 47462,6950.151,96.106,573.787,570.245,0.0
55272.0,STARLINK-5310,PAYLOAD,2023-11-26 11:19:59,14.98344588,0.0002412,70.0014,348.0006,255.4226,104.6666,0.00028702,3.335e-05,0.0,0 STARLINK-5310,1 55272U 23010D   23330.47222097  .00003335  00000-0  28702-3 0  9997,2 55272  70.0014 348.0006 0002412 255.4226 104.6666 14.98344588 47825,6950.148,96.106,573.689,570.336,0.0
55272.0,STARLINK-5310,PAYLOAD,2023-11-27 03:21:22,14.98307327,0.0002443,70.0019,346.3183,257.3414,102.7472,-0.00048098,-5.824e-05,0.0,0 STARLINK-5310,1 55272U 23010D   23331.13983831 -.00005824  00000-0 -48098-3 0  9998,2 55272  70.0019 346.3183 0002443 257.3414 102.7472 14.98307327 47612,6950.263,96.108,573.826,570.43,0.0
55272.0,STARLINK-5310,PAYLOAD,2023-11-27 11:22:04,14.98279824,0.0002273,70.0016,345.4749,260.9924,99.0978,-0.00089209,-0.00010707,0.0,0 STARLINK-5310,1 55272U 23010D   23331.47366101 -.00010707  00000-0 -89209-3 0  9995,2 55272  70.0016 345.4749 0002273 260.9924  99.0978 14.98279824 47668,6950.348,96.11,573.793,570.633,0.0
55272.0,STARLINK-5310,PAYLOAD,2023-11-28 01:47:14,14.98340329,0.0002203,70.0005,343.9584,257.7484,102.3429,-0.00072925,-8.785e-05,0.0,0 STARLINK-5310,1 55272U 23010D   23332.07447650 -.00008785  00000-0 -72925-3 0  9991,2 55272  70.0005 343.9584 0002203 257.7484 102.3429 14.98340329 47752,6950.161,96.106,573.557,570.495,0.0
55272.0,STARLINK-5310,PAYLOAD,2023-11-28 11:24:02,14.98349565,0.0001888,70.0014,342.9499,265.1991,94.8953,-0.00014587,-1.834e-05,0.0,0 STARLINK-5310,1 55272U 23010D   23332.47503315 -.00001834  00000-0 -14587-3 0  9994,2 55272  70.0014 342.9499 0001888 265.1991  94.8953 14.98349565 48120,6950.132,96.106,573.31,570.685,0.0
55272.0,STARLINK-5310,PAYLOAD,2023-11-29 03:25:24,14.98335541,0.0002692,70.0007,341.2659,270.5004,89.5847,0.00082485,9.764e-05,0.0,0 STARLINK-5310,1 55272U 23010D   23333.14264036  .00009764  00000-0  82485-3 0  9993,2 55272  70.0007 341.2659 0002692 270.5004  89.5847 14.98335541 47919,6950.176,96.107,573.912,570.17,0.0
55272.0,STARLINK-5310,PAYLOAD,2023-11-29 09:49:56,14.98338142,0.0002472,70.0012,340.5932,263.2692,96.8186,0.00096495,0.00011442,0.0,0 STARLINK-5310,1 55272U 23010D   23333.40968002  .00011442  00000-0  96495-3 0  9998,2 55272  70.0012 340.5932 0002472 263.2692  96.8186 14.98338142 48265,6950.168,96.106,573.751,570.315,0.0
55272.0,STARLINK-5310,PAYLOAD,2023-11-30 03:27:24,14.98339642,0.0002574,70.0014,338.742,263.0355,97.0511,-0.00010234,-1.314e-05,0.0,0 STARLINK-5310,1 55272U 23010D   23334.14403237 -.00001314  00000-0 -10234-3 0  9990,2 55272  70.0014 338.7420 0002574 263.0355  97.0511 14.98339642 48064,6950.163,96.106,573.817,570.239,0.0
55272.0,STARLINK-5310,PAYLOAD,2023-12-01 05:05:32,14.9833739,0.000273,70.0015,336.0494,263.6111,96.4737,-8.1667e-05,-1.067e-05,0.0,0 STARLINK-5310,1 55272U 23010D   23335.21218672 -.00001067  00000-0 -81667-4 0  9990,2 55272  70.0015 336.0494 0002730 263.6111  96.4737 14.98337390 48226,6950.17,96.107,573.932,570.138,0.0
55272.0,STARLINK-5310,PAYLOAD,2023-12-01 09:53:57,14.98336698,0.0002695,70.0014,335.5432,270.2544,89.8306,5.5184e-05,5.66e-06,0.0,0 STARLINK-5310,1 55272U 23010D   23335.41246718  .00000566  00000-0  55184-4 0  9990,2 55272  70.0014 335.5432 0002695 270.2544  89.8306 14.98336698 48560,6950.172,96.107,573.91,570.164,0.0
55272.0,STARLINK-5310,PAYLOAD,2023-12-02 09:55:57,14.98356094,0.0002415,70.002,333.0172,264.0966,95.9918,0.00073344,8.675e-05,0.0,0 STARLINK-5310,1 55272U 23010D   23336.41385617  .00008675  00000-0  73344-3 0  9999,2 55272  70.0020 333.0172 0002415 264.0966  95.9918 14.98356094 48402,6950.112,96.105,573.656,570.299,0.0
